[{"OBJECT_NAME":"STARLINK-3138","OBJECT_ID":"2021-104Y","EPOCH":"2026-03-09T18:15:29.554272","MEAN_MOTION":15.08838589,"ECCENTRICITY":0.00012775,"INCLINATION":53.2166,"RA_OF_ASC_NODE":229.0841,"ARG_OF_PERICENTER":82.1387,"MEAN_ANOMALY":277.9751,"EPHEMERIS_TYPE":0,"CLASSIFICATION_TYPE":"U","NORAD_CAT_ID":49430,"ELEMENT_SET_NO":999,"REV_AT_EPOCH":23864,"BSTAR":8.9419211e-5,"MEAN_MOTION_DOT":1.135e-5,"MEAN_MOTION_DDOT":0},{"OBJECT_NAME":"FENGYUN 1C DEB","OBJECT_ID":"1999-025AHJ","EPOCH":"2026-03-09T18:03:49.415328","MEAN_MOTION":14.96033857,"ECCENTRICITY":0.01248359,"INCLINATION":98.7826,"RA_OF_ASC_NODE":350.0057,"ARG_OF_PERICENTER":174.7814,"MEAN_ANOMALY":185.4738,"EPHEMERIS_TYPE":0,"CLASSIFICATION_TYPE":"U","NORAD_CAT_ID":30496,"ELEMENT_SET_NO":999,"REV_AT_EPOCH":2444,"BSTAR":0.00050780955,"MEAN_MOTION_DOT":6.595e-5,"MEAN_MOTION_DDOT":0}]
